[{"OBJECT_NAME":"VSP ROSE","OBJECT_ID":"2024-043AC","EPOCH":"2026-03-09T21:48:06.922944","MEAN_MOTION":15.27746075,"ECCENTRICITY":0.00099339,"INCLINATION":97.5443,"RA_OF_ASC_NODE":203.927,"ARG_OF_PERICENTER":232.2702,"MEAN_ANOMALY":127.7637,"EPHEMERIS_TYPE":0,"CLASSIFICATION_TYPE":"U","NORAD_CAT_ID":59124,"ELEMENT_SET_NO":999,"REV_AT_EPOCH":11182,"BSTAR":0.00025731354,"MEAN_MOTION_DOT":6.907e-5,"MEAN_MOTION_DDOT":0},{"OBJECT_NAME":"STARLINK-31879","OBJECT_ID":"2024-106R","EPOCH":"2026-03-09T03:21:35.776224","MEAN_MOTION":15.27580603,"ECCENTRICITY":0.00014128,"INCLINATION":43.0029,"RA_OF_ASC_NODE":336.0628,"ARG_OF_PERICENTER":259.6314,"MEAN_ANOMALY":100.4379,"EPHEMERIS_TYPE":0,"CLASSIFICATION_TYPE":"U","NORAD_CAT_ID":59937,"ELEMENT_SET_NO":999,"REV_AT_EPOCH":10048,"BSTAR":-3.8391973e-5,"MEAN_MOTION_DOT":-1.318e-5,"MEAN_MOTION_DDOT":0}]
